     2              NAVIGATION DATA                         RINEX VERSION / TYPE
CCRINEXN V1.6.0 UX  CDDIS               25-OCT-16 17:31     PGM / RUN BY / DATE 
IGS BROADCAST EPHEMERIS FILE                                COMMENT             
    0.1211D-07  0.0000D+00 -0.1192D-06  0.0000D+00          ION ALPHA           
    0.9421D+05  0.0000D+00 -0.1966D+06  0.0000D+00          ION BETA            
    0.000000000000D+00 0.000000000000D+00   319488     1920 DELTA-UTC: A0,A1,T,W
    17                                                      LEAP SECONDS        
                                                            END OF HEADER       
31 16 10 24  0  0  0.0 0.240806024522D-03-0.204636307899D-11 0.000000000000D+00
    0.840000000000D+02-0.146875000000D+01 0.442768443083D-08 0.211795634115D+00
   -0.206753611565D-06 0.839464948513D-02 0.768154859543D-05 0.515357865143D+04
    0.864000000000D+05 0.912696123123D-07-0.174603467093D+01-0.353902578354D-07
    0.969277680820D+00 0.236968750000D+03-0.368028005501D+00-0.812533845296D-08
   -0.383230248792D-09 0.100000000000D+01 0.192000000000D+04 0.000000000000D+00
    0.200000000000D+01 0.000000000000D+00-0.135041773319D-07 0.840000000000D+02
    0.854700000000D+05 0.400000000000D+01 0.000000000000D+00 0.000000000000D+00
32 16 10 24  0  0  0.0-0.167112797499D-03-0.162572177942D-10 0.000000000000D+00
    0.510000000000D+02 0.331562500000D+02 0.490198990184D-08-0.260570191559D+01
    0.177882611752D-05 0.620995531790D-03 0.627897679806D-05 0.515365412140D+04
    0.864000000000D+05 0.540167093277D-07-0.283256326818D+01-0.763684511185D-07
    0.959241385465D+00 0.257281250000D+03-0.243488637657D+01-0.826570144250D-08
    0.353586156854D-10 0.100000000000D+01 0.192000000000D+04 0.000000000000D+00
    0.200000000000D+01 0.000000000000D+00 0.465661287308D-09 0.510000000000D+02
    0.854700000000D+05 0.400000000000D+01 0.000000000000D+00 0.000000000000D+00
 5 16 10 24  1 59 44.0-0.825929455459D-04 0.238742359215D-11 0.000000000000D+00
    0.100000000000D+01-0.271875000000D+01 0.473841165958D-08-0.128689702422D+01
   -0.169500708580D-06 0.485372438561D-02 0.100228935480D-04 0.515362188530D+04
    0.935840000000D+05 0.111758708954D-06 0.239680795169D+01-0.372529029846D-07
    0.946586339475D+00 0.172218750000D+03 0.538033892506D+00-0.807926510525D-08
    0.327513642258D-09 0.100000000000D+01 0.192000000000D+04 0.000000000000D+00
    0.200000000000D+01 0.000000000000D+00-0.107102096081D-07 0.100000000000D+01
    0.864000000000D+05 0.400000000000D+01 0.000000000000D+00 0.000000000000D+00
 8 16 10 24  1 59 44.0-0.364747829735D-04-0.125055521494D-11 0.000000000000D+00
    0.140000000000D+02-0.218750000000D+01 0.455554689967D-08-0.129885093454D+01
   -0.521540641785D-07 0.186859373935D-02 0.444054603577D-05 0.515376657486D+04
    0.935840000000D+05-0.186264514923D-08 0.307034184589D+00 0.260770320892D-07
    0.964923545076D+00 0.296875000000D+03-0.101125826706D+01-0.827998775187D-08
    0.989326923723D-10 0.100000000000D+01 0.192000000000D+04 0.000000000000D+00
    0.200000000000D+01 0.000000000000D+00 0.512227416039D-08 0.140000000000D+02
    0.864000000000D+05 0.400000000000D+01 0.000000000000D+00 0.000000000000D+00
10 16 10 24  1 59 44.0-0.110029242933D-03-0.272848410532D-11 0.000000000000D+00
    0.130000000000D+02-0.146875000000D+01 0.443518474325D-08-0.735996718932D-02
   -0.242143869400D-07 0.181326980237D-02 0.101160258055D-04 0.515368252945D+04
    0.935840000000D+05 0.335276126862D-07 0.240683322103D+01-0.931322574616D-08
    0.959781664519D+00 0.184562500000D+03-0.291642549326D+01-0.795783147562D-08
    0.242152943785D-09 0.100000000000D+01 0.192000000000D+04 0.000000000000D+00
    0.200000000000D+01 0.000000000000D+00 0.232830643654D-08 0.130000000000D+02
    0.864000000000D+05 0.400000000000D+01 0.000000000000D+00 0.000000000000D+00
13 16 10 24  1 59 44.0-0.510248355568D-04-0.204636307899D-11 0.000000000000D+00
    0.270000000000D+02 0.278437500000D+02 0.463233581252D-08 0.241505726663D+01
    0.130757689476D-05 0.400631024968D-02 0.652298331261D-05 0.515368173790D+04
    0.935840000000D+05 0.465661287308D-07-0.271180227585D+01-0.558793544769D-08
    0.970890881548D+00 0.259468750000D+03 0.192256893519D+01-0.802533428739D-08
    0.235724104569D-10 0.100000000000D+01 0.192000000000D+04 0.000000000000D+00
    0.200000000000D+01 0.000000000000D+00-0.111758708954D-07 0.270000000000D+02
    0.864000000000D+05 0.400000000000D+01 0.000000000000D+00 0.000000000000D+00
28 16 10 24  1 59 44.0 0.561600551009D-03 0.295585778076D-11 0.000000000000D+00
    0.130000000000D+02 0.589375000000D+02 0.385944654013D-08-0.122088833184D+01
    0.320933759212D-05 0.200173064368D-01 0.815093517304D-05 0.515363815689D+04
    0.935840000000D+05-0.189989805222D-06-0.652837069033D+00 0.409781932831D-06
    0.989409298811D+00 0.242062500000D+03-0.160738443607D+01-0.801390509508D-08
    0.607168135214D-11 0.100000000000D+01 0.192000000000D+04 0.000000000000D+00
    0.200000000000D+01 0.000000000000D+00-0.111758708954D-07 0.130000000000D+02
    0.864000000000D+05 0.000000000000D+00 0.000000000000D+00 0.000000000000D+00
 1 16 10 24  2  0  0.0 0.381837598980D-04 0.125055521494D-11 0.000000000000D+00
    0.520000000000D+02-0.663125000000D+02 0.437875382124D-08 0.206148437077D+01
   -0.350177288055D-05 0.597100728191D-02 0.797025859356D-05 0.515370184517D+04
    0.936000000000D+05-0.108033418655D-06 0.136863264772D+01 0.372529029846D-08
    0.965204267352D+00 0.227937500000D+03 0.563170365369D+00-0.803997775449D-08
   -0.111790370803D-09 0.100000000000D+01 0.192000000000D+04 0.000000000000D+00
    0.200000000000D+01 0.000000000000D+00 0.512227416039D-08 0.520000000000D+02
    0.864000000000D+05 0.400000000000D+01 0.000000000000D+00 0.000000000000D+00
 2 16 10 24  2  0  0.0 0.535677187145D-03-0.534328137292D-11 0.000000000000D+00
    0.560000000000D+02-0.966250000000D+02 0.471376777592D-08 0.253200972876D+01
   -0.499561429024D-05 0.160390230594D-01 0.762566924095D-05 0.515366248131D+04
    0.936000000000D+05 0.132247805595D-06 0.131986307414D+01-0.223517417908D-06
    0.944050161787D+00 0.219156250000D+03-0.207437784754D+01-0.801926260591D-08
   -0.892894335490D-10 0.100000000000D+01 0.192000000000D+04 0.000000000000D+00
    0.200000000000D+01 0.000000000000D+00-0.200234353542D-07 0.560000000000D+02
    0.864000000000D+05 0.400000000000D+01 0.000000000000D+00 0.000000000000D+00
 3 16 10 24  2  0  0.0-0.941515900195D-04-0.193267624127D-11 0.000000000000D+00
    0.105000000000D+03 0.113750000000D+02 0.447304346307D-08 0.781889557730D+00
    0.346451997757D-06 0.300544314086D-03 0.101793557406D-04 0.515359768486D+04
    0.936000000000D+05-0.614672899246D-07 0.241071091800D+01 0.335276126862D-07
    0.959575217520D+00 0.183468750000D+03 0.731479524875D+00-0.793533053837D-08
    0.262510934634D-09 0.100000000000D+01 0.192000000000D+04 0.000000000000D+00
    0.200000000000D+01 0.000000000000D+00 0.186264514923D-08 0.105000000000D+03
    0.878700000000D+05 0.400000000000D+01 0.000000000000D+00 0.000000000000D+00
 4 16 10 24  2  0  0.0 0.105760991573D-04 0.341060513165D-11 0.000000000000D+00
    0.800000000000D+02 0.242812500000D+02 0.479627138006D-08-0.650646618386D+00
    0.109523534775D-05 0.839324737899D-02 0.653974711895D-05 0.515358827782D+04
    0.936000000000D+05-0.119209289551D-06-0.271328320684D+01-0.614672899246D-07
    0.966412339250D+00 0.259125000000D+03-0.989817098929D+00-0.827391577474D-08
    0.119647847185D-09 0.100000000000D+01 0.192000000000D+04 0.000000000000D+00
    0.400000000000D+01 0.100000000000D+01-0.419095158577D-08 0.800000000000D+02
    0.904500000000D+05 0.000000000000D+00 0.000000000000D+00 0.000000000000D+00
 6 16 10 24  2  0  0.0 0.263599213213D-03 0.500222085975D-11 0.000000000000D+00
    0.640000000000D+02-0.815625000000D+02 0.428553565262D-08 0.267104292338D+01
   -0.412017107010D-05 0.214991159737D-03 0.816956162453D-05 0.515379267883D+04
    0.936000000000D+05 0.186264514923D-07 0.136023217127D+01 0.465661287308D-07
    0.965012878168D+00 0.221968750000D+03-0.169817138535D+01-0.800854787388D-08
   -0.853606984729D-10 0.100000000000D+01 0.192000000000D+04 0.000000000000D+00
    0.200000000000D+01 0.000000000000D+00 0.419095158577D-08 0.640000000000D+02
    0.864000000000D+05 0.400000000000D+01 0.000000000000D+00 0.000000000000D+00
 7 16 10 24  2  0  0.0 0.416930299252D-03-0.318323145621D-11 0.000000000000D+00
    0.460000000000D+02 0.781250000000D+01 0.468055194602D-08 0.140765476156D+01
    0.534579157829D-06 0.100533344084D-01 0.804662704468D-05 0.515362465859D+04
    0.936000000000D+05-0.186264514923D-07-0.175611144962D+01 0.195577740669D-06
    0.964483070683D+00 0.229500000000D+03-0.262030862157D+01-0.821534218432D-08
   -0.422160445490D-09 0.100000000000D+01 0.192000000000D+04 0.000000000000D+00
    0.200000000000D+01 0.000000000000D+00-0.111758708954D-07 0.460000000000D+02
    0.864000000000D+05 0.000000000000D+00 0.000000000000D+00 0.000000000000D+00
 9 16 10 24  2  0  0.0 0.230899546295D-03 0.727595761418D-11 0.000000000000D+00
    0.850000000000D+02 0.282187500000D+02 0.506556796509D-08-0.196676294720D+01
    0.156834721565D-05 0.619507278316D-03 0.632740557194D-05 0.515375510216D+04
    0.936000000000D+05-0.428408384323D-07-0.283475331799D+01 0.745058059692D-08
    0.954687268820D+00 0.256406250000D+03 0.186369392729D+01-0.830498869675D-08
    0.111433209882D-09 0.100000000000D+01 0.192000000000D+04 0.000000000000D+00
    0.200000000000D+01 0.000000000000D+00 0.139698386192D-08 0.850000000000D+02
    0.864000000000D+05 0.000000000000D+00 0.000000000000D+00 0.000000000000D+00
